[
  {
    "COMMENT": "GENERATED VIA SPACETRACK.ORG API",
    "ORIGINATOR": "18 SPCS",
    "NORAD_CAT_ID": "48621",
    "OBJECT_NAME": "HAIYANG 2D",
    "OBJECT_TYPE": "PAYLOAD",
    "CLASSIFICATION_TYPE": "U",
    "INTLDES": "21043A",
    "EPOCH": "2023-06-01 13:02:08",
    "EPOCH_MICROSECONDS": "767392",
    "MEAN_MOTION": "13.83371685",
    "ECCENTRICITY": "0.0008658",
    "INCLINATION": "65.9962",
    "RA_OF_ASC_NODE": "192.3083",
    "ARG_OF_PERICENTER": "259.5744",
    "MEAN_ANOMALY": "100.4349",
    "EPHEMERIS_TYPE": "0",
    "ELEMENT_SET_NO": "999",
    "REV_AT_EPOCH": "10282",
    "BSTAR": "0.000076231",
    "MEAN_MOTION_DOT": "0.00000003",
    "MEAN_MOTION_DDOT": "0",
    "FILE": "3922662",
    "TLE_LINE0": "0 HAIYANG 2D",
    "TLE_LINE1": "1 48621U 21043A   23152.54315703  .00000003  00000-0  76231-4 0  9998",
    "TLE_LINE2": "2 48621  65.9962 192.3083 0008658 259.5744 100.4349 13.83371685102828",
    "OBJECT_ID": "2021-043A",
    "OBJECT_NUMBER": "48621",
    "SEMIMAJOR_AXIS": "7330.089",
    "PERIOD": "104.093",
    "APOGEE": "958.300",
    "PERIGEE": "945.608",
    "DECAYED": "0"
  },
  {
    "COMMENT": "GENERATED VIA SPACETRACK.ORG API",
    "ORIGINATOR": "18 SPCS",
    "NORAD_CAT_ID": "48621",
    "OBJECT_NAME": "HAIYANG 2D",
    "OBJECT_TYPE": "PAYLOAD",
    "CLASSIFICATION_TYPE": "U",
    "INTLDES": "21043A",
    "EPOCH": "2023-06-01 13:02:08",
    "EPOCH_MICROSECONDS": "767392",
    "MEAN_MOTION": "13.83371685",
    "ECCENTRICITY": "0.0008658",
    "INCLINATION": "65.9962",
    "RA_OF_ASC_NODE": "192.3083",
    "ARG_OF_PERICENTER": "259.5744",
    "MEAN_ANOMALY": "100.4349",
    "EPHEMERIS_TYPE": "0",
    "ELEMENT_SET_NO": "999",
    "REV_AT_EPOCH": "10278",
    "BSTAR": "0.000076231",
    "MEAN_MOTION_DOT": "0.00000003",
    "MEAN_MOTION_DDOT": "0",
    "FILE": "3922718",
    "TLE_LINE0": "0 HAIYANG 2D",
    "TLE_LINE1": "1 48621U 21043A   23152.54315703  .00000003  00000-0  76231-4 0  9998",
    "TLE_LINE2": "2 48621  65.9962 192.3083 0008658 259.5744 100.4349 13.83371685102783",
    "OBJECT_ID": "2021-043A",
    "OBJECT_NUMBER": "48621",
    "SEMIMAJOR_AXIS": "7330.089",
    "PERIOD": "104.093",
    "APOGEE": "958.300",
    "PERIGEE": "945.608",
    "DECAYED": "0"
  },
  {
    "COMMENT": "GENERATED VIA SPACETRACK.ORG API",
    "ORIGINATOR": "18 SPCS",
    "NORAD_CAT_ID": "48621",
    "OBJECT_NAME": "HAIYANG 2D",
    "OBJECT_TYPE": "PAYLOAD",
    "CLASSIFICATION_TYPE": "U",
    "INTLDES": "21043A",
    "EPOCH": "2023-06-02 02:54:58",
    "EPOCH_MICROSECONDS": "988448",
    "MEAN_MOTION": "13.83371751",
    "ECCENTRICITY": "0.0008652",
    "INCLINATION": "65.9961",
    "RA_OF_ASC_NODE": "190.8684",
    "ARG_OF_PERICENTER": "259.5473",
    "MEAN_ANOMALY": "100.462",
    "EPHEMERIS_TYPE": "0",
    "ELEMENT_SET_NO": "999",
    "REV_AT_EPOCH": "10290",
    "BSTAR": "0.000067722",
    "MEAN_MOTION_DOT": "-0.00000007",
    "MEAN_MOTION_DDOT": "0",
    "FILE": "3922967",
    "TLE_LINE0": "0 HAIYANG 2D",
    "TLE_LINE1": "1 48621U 21043A   23153.12151607 -.00000007  00000-0  67722-4 0  9994",
    "TLE_LINE2": "2 48621  65.9961 190.8684 0008652 259.5473 100.4620 13.83371751102905",
    "OBJECT_ID": "2021-043A",
    "OBJECT_NUMBER": "48621",
    "SEMIMAJOR_AXIS": "7330.089",
    "PERIOD": "104.093",
    "APOGEE": "958.296",
    "PERIGEE": "945.612",
    "DECAYED": "0"
  },
  {
    "COMMENT": "GENERATED VIA SPACETRACK.ORG API",
    "ORIGINATOR": "18 SPCS",
    "NORAD_CAT_ID": "48621",
    "OBJECT_NAME": "HAIYANG 2D",
    "OBJECT_TYPE": "PAYLOAD",
    "CLASSIFICATION_TYPE": "U",
    "INTLDES": "21043A",
    "EPOCH": "2023-06-02 11:35:30",
    "EPOCH_MICROSECONDS": "377472",
    "MEAN_MOTION": "13.83371837",
    "ECCENTRICITY": "0.0008646",
    "INCLINATION": "65.9961",
    "RA_OF_ASC_NODE": "189.9685",
    "ARG_OF_PERICENTER": "259.6012",
    "MEAN_ANOMALY": "100.4082",
    "EPHEMERIS_TYPE": "0",
    "ELEMENT_SET_NO": "999",
    "REV_AT_EPOCH": "10295",
    "BSTAR": "0.000080638",
    "MEAN_MOTION_DOT": "0.00000008",
    "MEAN_MOTION_DDOT": "0",
    "FILE": "3923268",
    "TLE_LINE0": "0 HAIYANG 2D",
    "TLE_LINE1": "1 48621U 21043A   23153.48299048  .00000008  00000-0  80638-4 0  9996",
    "TLE_LINE2": "2 48621  65.9961 189.9685 0008646 259.6012 100.4082 13.83371837102950",
    "OBJECT_ID": "2021-043A",
    "OBJECT_NUMBER": "48621",
    "SEMIMAJOR_AXIS": "7330.089",
    "PERIOD": "104.093",
    "APOGEE": "958.291",
    "PERIGEE": "945.616",
    "DECAYED": "0"
  },
  {
    "COMMENT": "GENERATED VIA SPACETRACK.ORG API",
    "ORIGINATOR": "18 SPCS",
    "NORAD_CAT_ID": "48621",
    "OBJECT_NAME": "HAIYANG 2D",
    "OBJECT_TYPE": "PAYLOAD",
    "CLASSIFICATION_TYPE": "U",
    "INTLDES": "21043A",
    "EPOCH": "2023-06-02 13:19:36",
    "EPOCH_MICROSECONDS": "655104",
    "MEAN_MOTION": "13.83371852",
    "ECCENTRICITY": "0.0008645",
    "INCLINATION": "65.9961",
    "RA_OF_ASC_NODE": "189.7885",
    "ARG_OF_PERICENTER": "259.6015",
    "MEAN_ANOMALY": "100.4079",
    "EPHEMERIS_TYPE": "0",
    "ELEMENT_SET_NO": "999",
    "REV_AT_EPOCH": "10292",
    "BSTAR": "0.000081614",
    "MEAN_MOTION_DOT": "0.00000009",
    "MEAN_MOTION_DDOT": "0",
    "FILE": "3923342",
    "TLE_LINE0": "0 HAIYANG 2D",
    "TLE_LINE1": "1 48621U 21043A   23153.55528536  .00000009  00000-0  81614-4 0  9997",
    "TLE_LINE2": "2 48621  65.9961 189.7885 0008645 259.6015 100.4079 13.83371852102922",
    "OBJECT_ID": "2021-043A",
    "OBJECT_NUMBER": "48621",
    "SEMIMAJOR_AXIS": "7330.089",
    "PERIOD": "104.093",
    "APOGEE": "958.290",
    "PERIGEE": "945.617",
    "DECAYED": "0"
  },
  {
    "COMMENT": "GENERATED VIA SPACETRACK.ORG API",
    "ORIGINATOR": "18 SPCS",
    "NORAD_CAT_ID": "48621",
    "OBJECT_NAME": "HAIYANG 2D",
    "OBJECT_TYPE": "PAYLOAD",
    "CLASSIFICATION_TYPE": "U",
    "INTLDES": "21043A",
    "EPOCH": "2023-06-02 16:47:49",
    "EPOCH_MICROSECONDS": "208640",
    "MEAN_MOTION": "13.83371863",
    "ECCENTRICITY": "0.0008645",
    "INCLINATION": "65.9961",
    "RA_OF_ASC_NODE": "189.4285",
    "ARG_OF_PERICENTER": "259.6241",
    "MEAN_ANOMALY": "100.3853",
    "EPHEMERIS_TYPE": "0",
    "ELEMENT_SET_NO": "999",
    "REV_AT_EPOCH": "10298",
    "BSTAR": "0.000076499",
    "MEAN_MOTION_DOT": "0.00000003",
    "MEAN_MOTION_DDOT": "0",
    "FILE": "3923537",
    "TLE_LINE0": "0 HAIYANG 2D",
    "TLE_LINE1": "1 48621U 21043A   23153.69987510  .00000003  00000-0  76499-4 0  9992",
    "TLE_LINE2": "2 48621  65.9961 189.4285 0008645 259.6241 100.3853 13.83371863102981",
    "OBJECT_ID": "2021-043A",
    "OBJECT_NUMBER": "48621",
    "SEMIMAJOR_AXIS": "7330.088",
    "PERIOD": "104.093",
    "APOGEE": "958.290",
    "PERIGEE": "945.617",
    "DECAYED": "0"
  },
  {
    "COMMENT": "GENERATED VIA SPACETRACK.ORG API",
    "ORIGINATOR": "18 SPCS",
    "NORAD_CAT_ID": "48621",
    "OBJECT_NAME": "HAIYANG 2D",
    "OBJECT_TYPE": "PAYLOAD",
    "CLASSIFICATION_TYPE": "U",
    "INTLDES": "21043A",
    "EPOCH": "2023-06-02 16:47:49",
    "EPOCH_MICROSECONDS": "208640",
    "MEAN_MOTION": "13.83371863",
    "ECCENTRICITY": "0.0008645",
    "INCLINATION": "65.9961",
    "RA_OF_ASC_NODE": "189.4285",
    "ARG_OF_PERICENTER": "259.6241",
    "MEAN_ANOMALY": "100.3853",
    "EPHEMERIS_TYPE": "0",
    "ELEMENT_SET_NO": "999",
    "REV_AT_EPOCH": "10294",
    "BSTAR": "0.000076499",
    "MEAN_MOTION_DOT": "0.00000003",
    "MEAN_MOTION_DDOT": "0",
    "FILE": "3923570",
    "TLE_LINE0": "0 HAIYANG 2D",
    "TLE_LINE1": "1 48621U 21043A   23153.69987510  .00000003  00000-0  76499-4 0  9992",
    "TLE_LINE2": "2 48621  65.9961 189.4285 0008645 259.6241 100.3853 13.83371863102947",
    "OBJECT_ID": "2021-043A",
    "OBJECT_NUMBER": "48621",
    "SEMIMAJOR_AXIS": "7330.088",
    "PERIOD": "104.093",
    "APOGEE": "958.290",
    "PERIGEE": "945.617",
    "DECAYED": "0"
  },
  {
    "COMMENT": "GENERATED VIA SPACETRACK.ORG API",
    "ORIGINATOR": "18 SPCS",
    "NORAD_CAT_ID": "48621",
    "OBJECT_NAME": "HAIYANG 2D",
    "OBJECT_TYPE": "PAYLOAD",
    "CLASSIFICATION_TYPE": "U",
    "INTLDES": "21043A",
    "EPOCH": "2023-06-03 03:12:26",
    "EPOCH_MICROSECONDS": "870976",
    "MEAN_MOTION": "13.83371913",
    "ECCENTRICITY": "0.000864",
    "INCLINATION": "65.9961",
    "RA_OF_ASC_NODE": "188.3486",
    "ARG_OF_PERICENTER": "259.6187",
    "MEAN_ANOMALY": "100.3908",
    "EPHEMERIS_TYPE": "0",
    "ELEMENT_SET_NO": "999",
    "REV_AT_EPOCH": "10304",
    "BSTAR": "0.000071719",
    "MEAN_MOTION_DOT": "-0.00000002",
    "MEAN_MOTION_DDOT": "0",
    "FILE": "3923696",
    "TLE_LINE0": "0 HAIYANG 2D",
    "TLE_LINE1": "1 48621U 21043A   23154.13364434 -.00000002  00000-0  71719-4 0  9996",
    "TLE_LINE2": "2 48621  65.9961 188.3486 0008640 259.6187 100.3908 13.83371913103041",
    "OBJECT_ID": "2021-043A",
    "OBJECT_NUMBER": "48621",
    "SEMIMAJOR_AXIS": "7330.088",
    "PERIOD": "104.093",
    "APOGEE": "958.286",
    "PERIGEE": "945.620",
    "DECAYED": "0"
  }
]